GLOBALSTAR M063         
1 26081U 00008A   24193.55821595 -.00000089  00000+0 -92526-4 0  9990
2 26081  51.9960 288.6587 0004274  27.2195  73.6050 11.86156898117155
GLOBALSTAR M062         
1 26082U 00008B   24193.53111492  .00000000  00000+0  70149-3 0  9994
2 26082  51.9862  17.5291 0007869 103.4415 273.8815 12.43442071454245
GLOBALSTAR M060         
1 26083U 00008C   24193.57423440  .00000039  00000+0  12927-2 0  9999
2 26083  52.0031 289.2245 0003918 152.8504 308.5726 12.17637173110876
GLOBALSTAR M064         
1 26084U 00008D   24193.53860308 -.00000074  00000+0  12675-3 0  9995
2 26084  52.0048  31.5525 0002160 105.6797 254.4274 11.88520274126595
GLOBALSTAR M065         
1 31571U 07020A   24193.52066042 -.00000074  00000+0  16396-3 0  9999
2 31571  51.9864 183.1179 0009831 273.7131 236.6027 12.61973769790392
GLOBALSTAR M069         
1 31573U 07020C   24193.35496351 -.00000074  00000+0  16406-3 0  9994
2 31573  51.9938 139.4163 0000717 353.4669 176.0634 12.62276748791508
GLOBALSTAR M072         
1 31574U 07020D   24193.58664133 -.00000090  00000+0  79566-4 0  9990
2 31574  52.0063 234.6748 0000511 223.0275 297.8803 12.62259746789803
GLOBALSTAR M071         
1 31576U 07020F   24193.30138369 -.00000081  00000+0  12817-3 0  9994
2 31576  52.0051 144.7662 0000703  34.1611 130.0346 12.62269384452688
